[{"OBJECT_NAME":"ONEWEB-0080","OBJECT_ID":"2020-020C","EPOCH":"2026-03-09T22:20:57.148800","MEAN_MOTION":13.11412701,"ECCENTRICITY":0.0002137,"INCLINATION":87.8863,"RA_OF_ASC_NODE":40.7981,"ARG_OF_PERICENTER":88.8299,"MEAN_ANOMALY":271.3074,"EPHEMERIS_TYPE":0,"CLASSIFICATION_TYPE":"U","NORAD_CAT_ID":45426,"ELEMENT_SET_NO":999,"REV_AT_EPOCH":28969,"BSTAR":-0.00089608248,"MEAN_MOTION_DOT":-3.05e-6,"MEAN_MOTION_DDOT":0},{"OBJECT_NAME":"OPS 4682 DEB","OBJECT_ID":"1965-027AQ","EPOCH":"2026-03-08T08:04:55.289856","MEAN_MOTION":13.06098794,"ECCENTRICITY":0.00350419,"INCLINATION":90.2515,"RA_OF_ASC_NODE":11.68,"ARG_OF_PERICENTER":339.9633,"MEAN_ANOMALY":175.0485,"EPHEMERIS_TYPE":0,"CLASSIFICATION_TYPE":"U","NORAD_CAT_ID":19113,"ELEMENT_SET_NO":999,"REV_AT_EPOCH":62179,"BSTAR":0.0048277092,"MEAN_MOTION_DOT":1.597e-5,"MEAN_MOTION_DDOT":0}]
